KOREASAT 7              
1 42691U 17023A   26117.01608795 -.00000373  00000+0  00000+0 0  9990
2 42691   0.0254 335.4507 0000985  67.2733 293.9761  1.00271453 32850
SGDC                    
1 42692U 17023B   26116.61186121  .00000000  00000+0  00000+0 0  9996
2 42692   0.0151  97.1049 0002832 309.8345 313.0843  1.00271005 32888
GSAT-9                  
1 42695U 17024A   26117.17386367 -.00000297  00000+0  00000+0 0  9995
2 42695   0.0489  61.4415 0002340 336.6161 337.0116  1.00274854 32787
INMARSAT 5-F4           
1 42698U 17025A   26116.79461138  .00000000  00000+0  00000+0 0  9997
2 42698   0.0149 239.8152 0000040 169.6636 147.8970  1.00271426 32763
SES-15                  
1 42709U 17026A   26117.24781884  .00000050  00000+0  00000+0 0  9990
2 42709   0.0244 328.8560 0000651  43.7721 162.6676  1.00270096  6928
QZS-2 (MICHIBIKI-2)     
1 42738U 17028A   26116.23428738 -.00000266  00000+0  00000+0 0  9998
2 42738  39.5095 243.9120 0740318 270.8047 281.9812  1.00247520  7109
VIASAT-2                
1 42740U 17029A   26117.19141821 -.00000275  00000+0  00000+0 0  9993
2 42740   0.0175 268.4377 0000278 105.8832 199.8770  1.00271610 32692
EUTELSAT 172B           
1 42741U 17029B   26117.29859510 -.00000016  00000+0  00000+0 0  9999
2 42741   0.0182 176.6875 0000111 108.1163 209.9642  1.00271807 33233
GSAT-19                 
1 42747U 17031A   26117.20044858  .00000115  00000+0  00000+0 0  9999
2 42747   0.0034 184.3071 0006970 225.3975 285.5354  1.00271587 32639
ECHOSTAR 21             
1 42749U 17032A   26117.21711356  .00000052  00000+0  00000+0 0  9997
2 42749   1.7793 352.4010 0002420  36.7362 274.4722  1.00271576 32580
BULGARIASAT-1           
1 42801U 17038A   26117.22267126  .00000000  00000+0  00000+0 0  9997
2 42801   0.0178 118.2501 0003570 294.6274 244.3972  1.00270530 32330
HELLAS-SAT 3            
1 42814U 17040A   26117.20600329  .00000142  00000+0  00000+0 0  9995
2 42814   0.0804  53.9418 0005323 335.0941 299.3253  1.00274479 32294
GSAT-17                 
1 42815U 17040B   26117.18030694 -.00000269  00000+0  00000+0 0  9996
2 42815   0.0204 251.0805 0004257  66.2560  56.2638  1.00274035 32278
INTELSAT 35E (IS-35E)   
1 42818U 17041A   26117.05760144  .00000000  00000+0  00000+0 0  9998
2 42818   0.0118 223.7397 0002140 169.6513 167.9153  1.00271365 32301
COSMOS 2520             
1 42907U 17046A   26117.07337484  .00000126  00000+0  00000+0 0  9990
2 42907   0.0228 116.5433 0000696 349.0294 180.9295  1.00273509 31882
TDRS 13                 
1 42915U 17047A   26116.82475192 -.00000110  00000+0  00000+0 0  9995
2 42915   3.4407   1.4594 0012926  98.4221  40.3722  1.00271933 31839
QZS-3 (MICHIBIKI-3)     
1 42917U 17048A   26117.23239168 -.00000358  00000+0  00000+0 0  9999
2 42917   0.0516 180.1623 0001370 205.0588  40.6963  1.00270802 31740
